     2              NAVIGATION DATA                         RINEX VERSION / TYPE
CCRINEXN V1.6.0 UX  CDDIS               01-APR-21 19:31     PGM / RUN BY / DATE 
IGS BROADCAST EPHEMERIS FILE                                COMMENT             
    0.1118D-07  0.7451D-08 -0.5960D-07 -0.5960D-07          ION ALPHA           
    0.9011D+05  0.1638D+05 -0.1966D+06 -0.6554D+05          ION BETA            
    0.931322574615D-09-0.355271367880D-14   405504     2151 DELTA-UTC: A0,A1,T,W
    18                                                      LEAP SECONDS        
                                                            END OF HEADER       
31 21  3 31  0  0  0.0-0.108740292490D-03-0.227373675443D-11 0.000000000000D+00
    0.670000000000D+02 0.975937500000D+02 0.419838916547D-08 0.101628779112D+01
    0.523962080479D-05 0.995635020081D-02 0.120848417282D-04 0.515376977730D+04
    0.259200000000D+06-0.800937414169D-07 0.721835636815D+00 0.216066837311D-06
    0.956488596424D+00 0.144250000000D+03 0.255054589853D+00-0.791640117846D-08
    0.892894335490D-10 0.100000000000D+01 0.215100000000D+04 0.000000000000D+00
    0.200000000000D+01 0.000000000000D+00-0.130385160446D-07 0.670000000000D+02
    0.252018000000D+06 0.400000000000D+01 0.000000000000D+00 0.000000000000D+00
32 21  3 31  0  0  0.0 0.218758359551D-04 0.341060513165D-12 0.000000000000D+00
    0.950000000000D+02-0.514687500000D+02 0.468233789531D-08-0.122161155904D+01
   -0.276230275631D-05 0.478303618729D-02 0.905431807041D-05 0.515365001869D+04
    0.259200000000D+06 0.165775418282D-06-0.357471233152D+00 0.298023223877D-07
    0.957525607848D+00 0.205250000000D+03-0.239923148615D+01-0.810140888477D-08
   -0.691100215669D-09 0.100000000000D+01 0.215100000000D+04 0.000000000000D+00
    0.200000000000D+01 0.000000000000D+00 0.465661287308D-09 0.950000000000D+02
    0.252018000000D+06 0.400000000000D+01 0.000000000000D+00 0.000000000000D+00
 2 21  3 31  1 59 44.0-0.591207761317D-03-0.352429196937D-11 0.000000000000D+00
    0.800000000000D+01-0.351562500000D+02 0.419481758813D-08-0.283181476907D+01
   -0.162422657013D-05 0.202922015451D-01 0.133402645588D-04 0.515365095138D+04
    0.266384000000D+06 0.327825546265D-06-0.251841937487D+01 0.189989805222D-06
    0.962635118417D+00 0.116406250000D+03-0.152901060563D+01-0.752317051311D-08
    0.393944980818D-09 0.100000000000D+01 0.215100000000D+04 0.000000000000D+00
    0.200000000000D+01 0.000000000000D+00-0.176951289177D-07 0.800000000000D+01
    0.259218000000D+06 0.400000000000D+01 0.000000000000D+00 0.000000000000D+00
 3 21  3 31  1 59 44.0-0.123146921396D-03-0.108002495835D-10 0.000000000000D+00
    0.000000000000D+00 0.305937500000D+02 0.489234664302D-08 0.209950580475D+01
    0.146217644215D-05 0.334357318934D-02 0.515021383762D-05 0.515361586189D+04
    0.266384000000D+06-0.670552253723D-07-0.139753754342D+01-0.521540641785D-07
    0.968311732105D+00 0.283218750000D+03 0.828733634139D+00-0.827463038586D-08
    0.286083345091D-09 0.100000000000D+01 0.215100000000D+04 0.000000000000D+00
    0.200000000000D+01 0.000000000000D+00 0.186264514923D-08 0.000000000000D+00
    0.261828000000D+06 0.400000000000D+01 0.000000000000D+00 0.000000000000D+00
 8 21  3 31  1 59 44.0-0.157244503498D-04-0.136424205266D-11 0.000000000000D+00
    0.290000000000D+02-0.118406250000D+03 0.453804617069D-08-0.870662373097D+00
   -0.627338886261D-05 0.632253929507D-02 0.625103712082D-05 0.515357487297D+04
    0.266384000000D+06 0.316649675369D-07 0.277411758724D+01-0.391155481338D-07
    0.967954945403D+00 0.257500000000D+03 0.165581479990D-01-0.831141763248D-08
   -0.306798493674D-09 0.100000000000D+01 0.215100000000D+04 0.000000000000D+00
    0.200000000000D+01 0.000000000000D+00 0.512227416039D-08 0.290000000000D+02
    0.259218000000D+06 0.400000000000D+01 0.000000000000D+00 0.000000000000D+00
 9 21  3 31  1 59 44.0-0.335303135216D-03-0.284217094304D-11 0.000000000000D+00
    0.200000000000D+02-0.532812500000D+02 0.482412951579D-08-0.418880205345D+00
   -0.284239649773D-05 0.182986736763D-02 0.885687768459D-05 0.515353886032D+04
    0.266384000000D+06-0.130385160446D-07-0.367315034820D+00 0.335276126862D-07
    0.953514287937D+00 0.204093750000D+03 0.183035368048D+01-0.822605693400D-08
   -0.707529471442D-09 0.100000000000D+01 0.215100000000D+04 0.000000000000D+00
    0.200000000000D+01 0.000000000000D+00 0.139698386192D-08 0.200000000000D+02
    0.260568000000D+06 0.400000000000D+01 0.000000000000D+00 0.000000000000D+00
21 21  3 31  1 59 44.0 0.107306521386D-03 0.295585778076D-11 0.000000000000D+00
    0.180000000000D+02-0.183125000000D+02 0.450483050142D-08-0.719753126115D+00
   -0.121816992760D-05 0.242124225479D-01 0.141989439726D-04 0.515371010590D+04
    0.266384000000D+06-0.370666384697D-06-0.251797724738D+01-0.465661287308D-07
    0.956758380461D+00 0.111750000000D+03-0.116285238353D+01-0.833820446254D-08
    0.546094175586D-09 0.100000000000D+01 0.215100000000D+04 0.000000000000D+00
    0.200000000000D+01 0.000000000000D+00-0.102445483208D-07 0.180000000000D+02
    0.264456000000D+06 0.400000000000D+01 0.000000000000D+00 0.000000000000D+00
26 21  3 31  1 59 44.0 0.655106268823D-04 0.522959453519D-11 0.000000000000D+00
    0.400000000000D+01 0.739687500000D+02 0.521164565739D-08 0.873916742620D+00
    0.389479100704D-05 0.580163882114D-02 0.194087624550D-05 0.515377865219D+04
    0.266384000000D+06 0.111758708954D-07 0.170144474062D+01 0.150874257088D-06
    0.942252090639D+00 0.331656250000D+03 0.297917748716D+00-0.875643616928D-08
    0.248938940735D-09 0.100000000000D+01 0.215100000000D+04 0.000000000000D+00
    0.200000000000D+01 0.000000000000D+00 0.698491930962D-08 0.400000000000D+01
    0.263058000000D+06 0.400000000000D+01 0.000000000000D+00 0.000000000000D+00
32 21  3 31  1 59 44.0 0.218776986003D-04 0.341060513165D-12 0.000000000000D+00
    0.260000000000D+02-0.516562500000D+02 0.477698469487D-08-0.173535152001D+00
   -0.273436307907D-05 0.478413177188D-02 0.837072730064D-05 0.515365287018D+04
    0.266384000000D+06-0.186264514923D-07-0.357530139011D+00 0.800937414169D-07
    0.957519764953D+00 0.216000000000D+03-0.239944568808D+01-0.828534511788D-08
   -0.701814947695D-09 0.100000000000D+01 0.215100000000D+04 0.000000000000D+00
    0.200000000000D+01 0.000000000000D+00 0.465661287308D-09 0.260000000000D+02
    0.264588000000D+06 0.400000000000D+01 0.000000000000D+00 0.000000000000D+00
 1 21  3 31  2  0  0.0 0.728494487703D-03-0.932232069317D-11 0.000000000000D+00
    0.990000000000D+02-0.831250000000D+01 0.374622747398D-08-0.308345235241D+01
   -0.610947608948D-06 0.106097098906D-01 0.142399221659D-04 0.515369343567D+04
    0.266400000000D+06-0.242143869400D-07-0.243582166838D+01-0.171363353729D-06
    0.983859818556D+00 0.114843750000D+03 0.823860490171D+00-0.744281002291D-08
    0.437161066656D-09 0.100000000000D+01 0.215100000000D+04 0.000000000000D+00
    0.200000000000D+01 0.000000000000D+00 0.465661287308D-08 0.990000000000D+02
    0.259218000000D+06 0.400000000000D+01 0.000000000000D+00 0.000000000000D+00
 4 21  3 31  2  0  0.0-0.189239624888D-03-0.204636307899D-11 0.000000000000D+00
    0.350000000000D+02-0.498125000000D+02 0.455768984608D-08-0.141150434124D+01
   -0.266917049885D-05 0.114613655023D-02 0.940263271332D-05 0.515376264000D+04
    0.266400000000D+06-0.372529029846D-08-0.316955466787D+00-0.745058059692D-08
    0.960714331848D+00 0.198468750000D+03-0.297411633188D+01-0.802461997192D-08
   -0.716101257063D-09 0.100000000000D+01 0.215100000000D+04 0.000000000000D+00
    0.200000000000D+01 0.000000000000D+00-0.419095158577D-08 0.291000000000D+03
    0.259218000000D+06 0.400000000000D+01 0.000000000000D+00 0.000000000000D+00
 5 21  3 31  2  0  0.0-0.377139076591D-04-0.102318153950D-11 0.000000000000D+00
    0.590000000000D+02 0.287500000000D+02 0.520985986872D-08-0.315591731628D+00
    0.157207250595D-05 0.599734729622D-02 0.537186861038D-05 0.515383544731D+04
    0.266400000000D+06-0.465661287308D-07-0.143363573314D+01 0.298023223877D-07
    0.955259243456D+00 0.270062500000D+03 0.880829033471D+00-0.854285584424D-08
    0.250010413937D-09 0.100000000000D+01 0.215100000000D+04 0.000000000000D+00
    0.200000000000D+01 0.000000000000D+00-0.111758708954D-07 0.590000000000D+02
    0.259218000000D+06 0.400000000000D+01 0.000000000000D+00 0.000000000000D+00
 6 21  3 31  2  0  0.0 0.391853973270D-05 0.238742359215D-11 0.000000000000D+00
    0.850000000000D+02-0.308437500000D+02 0.384587448182D-08-0.281360538008D+01
   -0.143051147461D-05 0.231896084733D-02 0.136084854603D-04 0.515374338722D+04
    0.266400000000D+06-0.186264514923D-07-0.244407347432D+01 0.912696123123D-07
    0.983337866941D+00 0.129593750000D+03-0.101509213500D+01-0.758745890526D-08
    0.429303596504D-09 0.100000000000D+01 0.215100000000D+04 0.000000000000D+00
    0.200000000000D+01 0.000000000000D+00 0.372529029846D-08 0.850000000000D+02
    0.259218000000D+06 0.400000000000D+01 0.000000000000D+00 0.000000000000D+00
 7 21  3 31  2  0  0.0 0.107045751065D-03 0.120508047985D-10 0.000000000000D+00
    0.560000000000D+02 0.104031250000D+03 0.422267589140D-08 0.260352648472D+01
    0.524148344994D-05 0.146513247164D-01 0.134613364935D-04 0.515360289574D+04
    0.266400000000D+06 0.223517417908D-07 0.704958544879D+00-0.236555933952D-06
    0.952172857890D+00 0.111562500000D+03-0.234433912204D+01-0.771567853184D-08
    0.121790787361D-09 0.100000000000D+01 0.215100000000D+04 0.000000000000D+00
    0.200000000000D+01 0.000000000000D+00-0.111758708954D-07 0.560000000000D+02
    0.265572000000D+06 0.400000000000D+01 0.000000000000D+00 0.000000000000D+00
